STARLINK-31534          
1 59398U 24064A   26068.32047092 -.00000736  00000+0 -17248-4 0  9992
2 59398  43.0026  57.8874 0000936 254.4263 105.6485 15.27574218109117
PHISAT 2                
1 60470U 24149C   26068.78834181  .00008925  00000+0  31421-3 0  9996
2 60470  97.3806 148.6498 0001175 168.6230 191.5037 15.29548631 86792
